[{"OBJECT_NAME":"STARLINK-5885","OBJECT_ID":"2023-058AM","EPOCH":"2026-03-09T21:32:14.476992","MEAN_MOTION":15.01261956,"ECCENTRICITY":0.00029947,"INCLINATION":97.6049,"RA_OF_ASC_NODE":70.4347,"ARG_OF_PERICENTER":117.4705,"MEAN_ANOMALY":242.6825,"EPHEMERIS_TYPE":0,"CLASSIFICATION_TYPE":"U","NORAD_CAT_ID":56352,"ELEMENT_SET_NO":999,"REV_AT_EPOCH":15816,"BSTAR":1.6721025e-5,"MEAN_MOTION_DOT":1.56e-6,"MEAN_MOTION_DDOT":0},{"OBJECT_NAME":"CZ-6A DEB","OBJECT_ID":"2024-140XA","EPOCH":"2026-03-09T13:38:46.141440","MEAN_MOTION":14.97207457,"ECCENTRICITY":0.0079782,"INCLINATION":88.8472,"RA_OF_ASC_NODE":268.9899,"ARG_OF_PERICENTER":170.4337,"MEAN_ANOMALY":189.8439,"EPHEMERIS_TYPE":0,"CLASSIFICATION_TYPE":"U","NORAD_CAT_ID":61385,"ELEMENT_SET_NO":999,"REV_AT_EPOCH":8131,"BSTAR":0.0034461,"MEAN_MOTION_DOT":0.00042743,"MEAN_MOTION_DDOT":0}]
